IRIDIUM 136             
1 42962U 17061H   24095.17137470  .00000293  00000+0  97476-4 0  9998
2 42962  86.4029   1.2537 0002245  92.8395 267.3058 14.34218122339599
